OBJECT_NAME,OBJECT_ID,EPOCH,MEAN_MOTION,ECCENTRICITY,INCLINATION,RA_OF_ASC_NODE,ARG_OF_PERICENTER,MEAN_ANOMALY,EPHEMERIS_TYPE,CLASSIFICATION_TYPE,NORAD_CAT_ID,ELEMENT_SET_NO,REV_AT_EPOCH,BSTAR,MEAN_MOTION_DOT,MEAN_MOTION_DDOT
ONEWEB-0141,2020-100AF,2026-07-16T21:36:16.754688,13.12443744,.0001853,87.8973,344.7404,87.4818,272.6522,0,U,47287,999,26857,-.11638E-2,-.406E-5,0
ONEWEB-0142,2020-100AG,2026-07-16T21:19:36.327360,13.12443669,.0002188,87.8967,344.7628,88.3292,271.8087,0,U,47288,999,26856,-.63168E-3,-.215E-5,0
ONEWEB-0143,2020-100AH,2026-07-16T21:34:02.591040,13.12443345,.0001844,87.8967,344.7602,95.4599,264.6740,0,U,47289,999,26854,-.12335E-2,-.431E-5,0
ONEWEB-0144,2020-100AJ,2026-07-16T20:52:35.357088,13.12441756,.0002245,87.8976,344.7417,97.2526,262.8858,0,U,47290,999,26846,.72303E-3,.273E-5,0
ONEWEB-0145,2020-100AK,2026-07-16T11:02:12.004224,13.12445705,.0001948,87.8961,344.8480,96.1761,263.9590,0,U,47291,999,26860,-.19109E-3,-.56E-6,0
ONEWEB-0146,2020-100AL,2026-07-16T21:56:00.534912,13.12443961,.0001555,87.8972,344.7516,101.8190,258.3113,0,U,47292,999,26857,-.27557E-3,-.86E-6,0
ONEWEB-0147,2020-100AM,2026-07-16T10:08:31.457184,13.12442551,.0001929,87.8976,344.8313,101.0984,259.0362,0,U,47293,999,26840,-.12017E-3,-.31E-6,0
YAOGAN-33 01,2020-103A,2026-07-17T04:52:12.852192,14.58730832,.0003687,98.0376,78.8229,49.4209,310.7312,0,U,47302,999,29568,.48685E-4,.183E-5,0
WEINA 2,2020-103B,2026-07-17T05:06:34.106400,14.65087736,.0003662,98.0499,86.7710,93.9156,266.2466,0,U,47303,999,29612,.14829E-3,.749E-5,0
TURKSAT 5A,2021-001A,2026-07-17T02:13:38.701056,1.00272252,.0000102,0.0145,70.0373,247.4733,41.7305,0,U,47306,999,2026,0,.144E-5,0
TIANTONG-1 3,2021-003A,2026-07-16T18:50:28.517856,1.00269970,.0003039,1.7349,341.1546,143.3720,174.2252,0,U,47321,999,2025,0,-.163E-5,0
GMS-T,2021-004A,2026-07-17T02:31:12.120960,13.16657066,.0001955,90.1275,242.1986,10.7946,349.3227,0,U,47346,999,26353,-.81836E-5,.5E-7,0
STARLINK-2017,2021-005C,2026-07-17T04:35:25.568160,15.31712744,.0001378,53.1589,131.1004,90.1521,269.9638,0,U,47351,999,30356,.81252E-4,.2158E-4,0
STARLINK-2034,2021-005D,2026-07-16T08:00:26.901216,15.31704029,.0001431,53.1584,174.1586,76.0872,284.0288,0,U,47352,999,30288,-.21419E-4,-.103E-4,0
STARLINK-2045,2021-005E,2026-07-16T23:21:17.721792,15.31705162,.0001223,53.1605,119.1087,89.1415,270.9727,0,U,47353,999,30371,.49083E-4,.1158E-4,0
STARLINK-2046,2021-005F,2026-07-16T03:21:36.387936,15.31700582,.00013426,53.1605,146.3131,85.6414,274.4741,0,U,47354,999,30325,.66863322E-4,.171E-4,0
STARLINK-2047,2021-005G,2026-07-16T19:43:43.825728,15.31712021,.0001573,53.1590,130.1481,89.3864,270.7318,0,U,47355,999,30353,-.67545E-5,-.575E-5,0
STARLINK-2049,2021-005H,2026-07-16T20:59:44.490336,15.31707154,.0001434,53.1601,155.8839,92.5817,267.5349,0,U,47356,999,30317,.50318E-4,.1197E-4,0
STARLINK-2050,2021-005J,2026-07-16T08:11:03.213888,15.31699102,.0001344,53.1595,184.2837,89.6510,270.4646,0,U,47357,999,30273,.56618E-4,.1392E-4,0
STARLINK-2055,2021-005K,2026-07-16T20:27:33.691392,15.32958412,.0003072,53.1572,156.3315,58.1113,302.0188,0,U,47358,999,30316,.7185E-3,.22896E-3,0
STARLINK-2071,2021-005N,2026-07-16T22:28:02.635104,15.31706636,.0001145,53.1600,156.0634,87.7817,272.3316,0,U,47361,999,30317,.72407E-4,.1883E-4,0
STARLINK-2076,2021-005P,2026-07-16T22:55:59.755008,15.38653312,.0006212,53.1579,178.9806,38.2027,321.9417,0,U,47362,999,30286,.73016E-3,.28017E-3,0
STARLINK-2081,2021-005T,2026-07-16T23:43:24.406752,15.31708429,.0001221,53.1580,180.9772,97.5677,262.5463,0,U,47366,999,30283,.51918E-4,.1247E-4,0
STARLINK-2082,2021-005U,2026-07-16T22:56:26.138112,15.31709618,.0001289,53.1585,181.2058,88.4391,271.6758,0,U,47367,999,30283,.57548E-4,.1421E-4,0
STARLINK-2084,2021-005V,2026-07-16T22:23:20.011200,15.31708367,.0001138,53.1586,181.1532,89.4119,270.7013,0,U,47368,999,30283,.60794E-4,.1522E-4,0
STARLINK-2088,2021-005Y,2026-07-16T08:25:09.005088,15.31700940,.0001424,53.1586,187.7033,85.3230,274.7934,0,U,47371,999,30268,.41239E-4,.915E-5,0
STARLINK-2092,2021-005AA,2026-07-16T22:36:16.469856,15.31693130,.0001491,53.1575,181.0962,75.1632,284.9534,0,U,47373,999,30283,.10955E-3,.3035E-4,0
STARLINK-2094,2021-005AC,2026-07-16T09:10:54.175008,15.31706554,.0001313,53.1578,183.7293,81.1958,278.9192,0,U,47375,999,30274,.87603E-4,.2355E-4,0
STARLINK-2096,2021-005AD,2026-07-16T06:09:41.769216,15.31707410,.0001237,53.1570,184.3246,67.1700,292.9432,0,U,47376,999,30272,.10122E-3,.2778E-4,0
STARLINK-2097,2021-005AE,2026-07-16T22:37:59.227104,15.31713124,.0001297,53.1573,184.8814,85.1581,274.9569,0,U,47377,999,30277,.94254E-4,.2562E-4,0
