ONEWEB-0141             
1 47287U 20100AF  26197.90019392 -.00000406  00000+0 -11638-2 0  9991
2 47287  87.8973 344.7404 0001853  87.4818 272.6522 13.12443744268578
ONEWEB-0142             
1 47288U 20100AG  26197.88861490 -.00000215  00000+0 -63168-3 0  9997
2 47288  87.8967 344.7628 0002188  88.3292 271.8087 13.12443669268560
ONEWEB-0143             
1 47289U 20100AH  26197.89864110 -.00000431  00000+0 -12335-2 0  9990
2 47289  87.8967 344.7602 0001844  95.4599 264.6740 13.12443345268545
ONEWEB-0144             
1 47290U 20100AJ  26197.86985367  .00000273  00000+0  72303-3 0  9991
2 47290  87.8976 344.7417 0002245  97.2526 262.8858 13.12441756268462
ONEWEB-0145             
1 47291U 20100AK  26197.45986116 -.00000056  00000+0 -19109-3 0  9996
2 47291  87.8961 344.8480 0001948  96.1761 263.9590 13.12445705268605
ONEWEB-0146             
1 47292U 20100AL  26197.91389508 -.00000086  00000+0 -27557-3 0  9999
2 47292  87.8972 344.7516 0001555 101.8190 258.3113 13.12443961268578
ONEWEB-0147             
1 47293U 20100AM  26197.42258631 -.00000031  00000+0 -12017-3 0  9993
2 47293  87.8976 344.8313 0001929 101.0984 259.0362 13.12442551268407
YAOGAN-33 01            
1 47302U 20103A   26198.20292653  .00000183  00000+0  48685-4 0  9993
2 47302  98.0376  78.8229 0003687  49.4209 310.7312 14.58730832295687
WEINA 2                 
1 47303U 20103B   26198.21289475  .00000749  00000+0  14829-3 0  9993
2 47303  98.0499  86.7710 0003662  93.9156 266.2466 14.65087736296126
TURKSAT 5A              
1 47306U 21001A   26198.09280904  .00000144  00000+0  00000+0 0  9999
2 47306   0.0145  70.0373 0000102 247.4733  41.7305  1.00272252 20266
TIANTONG-1 3            
1 47321U 21003A   26197.78505229 -.00000163  00000+0  00000+0 0  9995
2 47321   1.7349 341.1546 0003039 143.3720 174.2252  1.00269970 20258
GMS-T                   
1 47346U 21004A   26198.10500140  .00000005  00000+0 -81836-5 0  9994
2 47346  90.1275 242.1986 0001955  10.7946 349.3227 13.16657066263539
STARLINK-2017           
1 47351U 21005C   26198.19126815  .00002158  00000+0  81252-4 0  9994
2 47351  53.1589 131.1004 0001378  90.1521 269.9638 15.31712744303565
STARLINK-2034           
1 47352U 21005D   26197.33364469 -.00001030  00000+0 -21419-4 0  9998
2 47352  53.1584 174.1586 0001431  76.0872 284.0288 15.31704029302885
STARLINK-2045           
1 47353U 21005E   26197.97312178  .00001158  00000+0  49083-4 0  9995
2 47353  53.1605 119.1087 0001223  89.1415 270.9727 15.31705162303716
STARLINK-2046           
1 47354U 21005F   26197.14000449  .00001710  00000+0  66863-4 0  9999
2 47354  53.1605 146.3131 0001342  85.6414 274.4741 15.31700582303256
STARLINK-2047           
1 47355U 21005G   26197.82203502 -.00000575  00000+0 -67545-5 0  9999
2 47355  53.1590 130.1481 0001573  89.3864 270.7318 15.31712021303536
STARLINK-2049           
1 47356U 21005H   26197.87482049  .00001197  00000+0  50318-4 0  9998
2 47356  53.1601 155.8839 0001434  92.5817 267.5349 15.31707154303170
STARLINK-2050           
1 47357U 21005J   26197.34100942  .00001392  00000+0  56618-4 0  9996
2 47357  53.1595 184.2837 0001344  89.6510 270.4646 15.31699102302731
STARLINK-2055           
1 47358U 21005K   26197.85247328  .00022896  00000+0  71850-3 0  9999
2 47358  53.1572 156.3315 0003072  58.1113 302.0188 15.32958412303162
STARLINK-2071           
1 47361U 21005N   26197.93614161  .00001883  00000+0  72407-4 0  9998
2 47361  53.1600 156.0634 0001145  87.7817 272.3316 15.31706636303178
STARLINK-2076           
1 47362U 21005P   26197.95555272  .00028017  00000+0  73016-3 0  9992
2 47362  53.1579 178.9806 0006212  38.2027 321.9417 15.38653312302869
STARLINK-2081           
1 47366U 21005T   26197.98847693  .00001247  00000+0  51918-4 0  9994
2 47366  53.1580 180.9772 0001221  97.5677 262.5463 15.31708429302835
STARLINK-2082           
1 47367U 21005U   26197.95585808  .00001421  00000+0  57548-4 0  9998
2 47367  53.1585 181.2058 0001289  88.4391 271.6758 15.31709618302837
STARLINK-2084           
1 47368U 21005V   26197.93287050  .00001522  00000+0  60794-4 0  9994
2 47368  53.1586 181.1532 0001138  89.4119 270.7013 15.31708367302831
STARLINK-2088           
1 47371U 21005Y   26197.35079867  .00000915  00000+0  41239-4 0  9997
2 47371  53.1586 187.7033 0001424  85.3230 274.7934 15.31700940302688
STARLINK-2092           
1 47373U 21005AA  26197.94185729  .00003035  00000+0  10955-3 0  9995
2 47373  53.1575 181.0962 0001491  75.1632 284.9534 15.31693130302831
STARLINK-2094           
1 47375U 21005AC  26197.38257147  .00002355  00000+0  87603-4 0  9998
2 47375  53.1578 183.7293 0001313  81.1958 278.9192 15.31706554302741
STARLINK-2096           
1 47376U 21005AD  26197.25673344  .00002778  00000+0  10122-3 0  9996
2 47376  53.1570 184.3246 0001237  67.1700 292.9432 15.31707410302726
STARLINK-2097           
1 47377U 21005AE  26197.94304661  .00002562  00000+0  94254-4 0  9996
2 47377  53.1573 184.8814 0001297  85.1581 274.9569 15.31713124302774
